[{"OBJECT_NAME":"XINGYUN-2 01","OBJECT_ID":"2020-028A","EPOCH":"2026-03-09T23:27:57.512736","MEAN_MOTION":15.11323975,"ECCENTRICITY":0.00090563,"INCLINATION":97.4853,"RA_OF_ASC_NODE":63.3977,"ARG_OF_PERICENTER":174.572,"MEAN_ANOMALY":185.561,"EPHEMERIS_TYPE":0,"CLASSIFICATION_TYPE":"U","NORAD_CAT_ID":45602,"ELEMENT_SET_NO":999,"REV_AT_EPOCH":31985,"BSTAR":0.000253969,"MEAN_MOTION_DOT":4.22e-5,"MEAN_MOTION_DDOT":0},{"OBJECT_NAME":"STARLINK-4422","OBJECT_ID":"2022-104BD","EPOCH":"2026-03-09T17:24:19.132416","MEAN_MOTION":15.08859115,"ECCENTRICITY":0.00013576,"INCLINATION":53.2179,"RA_OF_ASC_NODE":223.7502,"ARG_OF_PERICENTER":83.4597,"MEAN_ANOMALY":276.6549,"EPHEMERIS_TYPE":0,"CLASSIFICATION_TYPE":"U","NORAD_CAT_ID":53639,"ELEMENT_SET_NO":999,"REV_AT_EPOCH":19606,"BSTAR":0.0002237864,"MEAN_MOTION_DOT":3.277e-5,"MEAN_MOTION_DDOT":0}]
